{
  "type": "FeatureCollection",
  "features": [
    {
      "type": "Feature",
      "properties": {
        "norad_id": 58647,
        "name": "TIANMU-1 13",
        "group": "weather",
        "lat": -11.846419032079007,
        "lon": 177.11399028496365,
        "alt_km": 498.71867269614904,
        "timestamp": "2025-12-04T21:36:15.517028+00:00",
        "meta_object_name": "TIANMU-1 13",
        "meta_object_id": "2023-205C",
        "meta_epoch": "2025-12-04T14:27:47.237184",
        "meta_mean_motion": 15.24368255,
        "meta_eccentricity": 0.00063065,
        "meta_inclination": 97.3623,
        "meta_ra_of_asc_node": 358.3758,
        "meta_arg_of_pericenter": 304.0368,
        "meta_mean_anomaly": 56.027,
        "meta_ephemeris_type": 0,
        "meta_classification_type": "U",
        "meta_norad_cat_id": 58647,
        "meta_element_set_no": 999,
        "meta_rev_at_epoch": 10783,
        "meta_bstar": 0.00057670577,
        "meta_mean_motion_dot": 0.00014073,
        "meta_mean_motion_ddot": 0,
        "tle_line1": "1 58647U 23205C   25338.60263006  .00014073  00000+0  57671-3 0  9999",
        "tle_line2": "2 58647  97.3623 358.3758 0006306 304.0368  56.0270 15.24368255107830"
      },
      "geometry": {
        "type": "Point",
        "coordinates": [
          177.11399028496365,
          -11.846419032079007
        ]
      }
    },
    {
      "type": "Feature",
      "properties": {
        "norad_id": 58648,
        "name": "TIANMU-1 14",
        "group": "weather",
        "lat": -74.80689380586296,
        "lon": 26.427746954719947,
        "alt_km": 495.5428215400416,
        "timestamp": "2025-12-04T21:36:15.517039+00:00",
        "meta_object_name": "TIANMU-1 14",
        "meta_object_id": "2023-205D",
        "meta_epoch": "2025-12-04T15:38:16.929312",
        "meta_mean_motion": 15.2435395,
        "meta_eccentricity": 0.00071851,
        "meta_inclination": 97.3555,
        "meta_ra_of_asc_node": 357.7801,
        "meta_arg_of_pericenter": 308.4743,
        "meta_mean_anomaly": 51.5849,
        "meta_ephemeris_type": 0,
        "meta_classification_type": "U",
        "meta_norad_cat_id": 58648,
        "meta_element_set_no": 999,
        "meta_rev_at_epoch": 10784,
        "meta_bstar": 0.00054494002,
        "meta_mean_motion_dot": 0.00013289,
        "meta_mean_motion_ddot": 0,
        "tle_line1": "1 58648U 23205D   25338.65158483  .00013289  00000+0  54494-3 0  9995",
        "tle_line2": "2 58648  97.3555 357.7801 0007185 308.4743  51.5849 15.24353950107847"
      },
      "geometry": {
        "type": "Point",
        "coordinates": [
          26.427746954719947,
          -74.80689380586296
        ]
      }
    },
    {
      "type": "Feature",
      "properties": {
        "norad_id": 58660,
        "name": "TIANMU-1 19",
        "group": "weather",
        "lat": 81.08476728513682,
        "lon": 33.545807919325725,
        "alt_km": 478.052853348041,
        "timestamp": "2025-12-04T21:36:15.517050+00:00",
        "meta_object_name": "TIANMU-1 19",
        "meta_object_id": "2023-208A",
        "meta_epoch": "2025-12-04T14:56:41.485632",
        "meta_mean_motion": 15.27620912,
        "meta_eccentricity": 0.00040869,
        "meta_inclination": 97.4396,
        "meta_ra_of_asc_node": 89.6776,
        "meta_arg_of_pericenter": 289.3714,
        "meta_mean_anomaly": 70.7083,
        "meta_ephemeris_type": 0,
        "meta_classification_type": "U",
        "meta_norad_cat_id": 58660,
        "meta_element_set_no": 999,
        "meta_rev_at_epoch": 10758,
        "meta_bstar": 0.00070923485,
        "meta_mean_motion_dot": 0.0001911,
        "meta_mean_motion_ddot": 0,
        "tle_line1": "1 58660U 23208A   25338.62270238  .00019110  00000+0  70923-3 0  9996",
        "tle_line2": "2 58660  97.4396  89.6776 0004086 289.3714  70.7083 15.27620912107581"
      },
      "geometry": {
        "type": "Point",
        "coordinates": [
          33.545807919325725,
          81.08476728513682
        ]
      }
    },
    {
      "type": "Feature",
      "properties": {
        "norad_id": 58661,
        "name": "TIANMU-1 20",
        "group": "weather",
        "lat": 53.53586481303306,
        "lon": -79.4295126500164,
        "alt_km": 478.725360105208,
        "timestamp": "2025-12-04T21:36:15.517060+00:00",
        "meta_object_name": "TIANMU-1 20",
        "meta_object_id": "2023-208B",
        "meta_epoch": "2025-12-04T14:46:20.958240",
        "meta_mean_motion": 15.28812578,
        "meta_eccentricity": 0.00064391,
        "meta_inclination": 97.4333,
        "meta_ra_of_asc_node": 90.1102,
        "meta_arg_of_pericenter": 299.7968,
        "meta_mean_anomaly": 60.2631,
        "meta_ephemeris_type": 0,
        "meta_classification_type": "U",
        "meta_norad_cat_id": 58661,
        "meta_element_set_no": 999,
        "meta_rev_at_epoch": 10765,
        "meta_bstar": 0.0006787705,
        "meta_mean_motion_dot": 0.00018969,
        "meta_mean_motion_ddot": 0,
        "tle_line1": "1 58661U 23208B   25338.61552035  .00018969  00000+0  67877-3 0  9999",
        "tle_line2": "2 58661  97.4333  90.1102 0006439 299.7968  60.2631 15.28812578107656"
      },
      "geometry": {
        "type": "Point",
        "coordinates": [
          -79.4295126500164,
          53.53586481303306
        ]
      }
    },
    {
      "type": "Feature",
      "properties": {
        "norad_id": 58662,
        "name": "TIANMU-1 21",
        "group": "weather",
        "lat": 59.40413410723882,
        "lon": 79.50305456487352,
        "alt_km": 468.69781240460543,
        "timestamp": "2025-12-04T21:36:15.517070+00:00",
        "meta_object_name": "TIANMU-1 21",
        "meta_object_id": "2023-208C",
        "meta_epoch": "2025-12-04T15:04:07.984416",
        "meta_mean_motion": 15.31284896,
        "meta_eccentricity": 0.00059416,
        "meta_inclination": 97.4382,
        "meta_ra_of_asc_node": 91.9947,
        "meta_arg_of_pericenter": 293.9329,
        "meta_mean_anomaly": 66.1289,
        "meta_ephemeris_type": 0,
        "meta_classification_type": "U",
        "meta_norad_cat_id": 58662,
        "meta_element_set_no": 999,
        "meta_rev_at_epoch": 10775,
        "meta_bstar": 0.00072297119,
        "meta_mean_motion_dot": 0.00021817,
        "meta_mean_motion_ddot": 0,
        "tle_line1": "1 58662U 23208C   25338.62787019  .00021817  00000+0  72297-3 0  9991",
        "tle_line2": "2 58662  97.4382  91.9947 0005941 293.9329  66.1289 15.31284896107756"
      },
      "geometry": {
        "type": "Point",
        "coordinates": [
          79.50305456487352,
          59.40413410723882
        ]
      }
    },
    {
      "type": "Feature",
      "properties": {
        "norad_id": 58663,
        "name": "TIANMU-1 22",
        "group": "weather",
        "lat": 81.97271947430278,
        "lon": -22.08700944126342,
        "alt_km": 477.4192923707624,
        "timestamp": "2025-12-04T21:36:15.517081+00:00",
        "meta_object_name": "TIANMU-1 22",
        "meta_object_id": "2023-208D",
        "meta_epoch": "2025-12-04T14:54:33.948000",
        "meta_mean_motion": 15.27391449,
        "meta_eccentricity": 0.00030102,
        "meta_inclination": 97.439,
        "meta_ra_of_asc_node": 89.7389,
        "meta_arg_of_pericenter": 325.5522,
        "meta_mean_anomaly": 34.5522,
        "meta_ephemeris_type": 0,
        "meta_classification_type": "U",
        "meta_norad_cat_id": 58663,
        "meta_element_set_no": 999,
        "meta_rev_at_epoch": 10759,
        "meta_bstar": 0.00066654566,
        "meta_mean_motion_dot": 0.00017826,
        "meta_mean_motion_ddot": 0,
        "tle_line1": "1 58663U 23208D   25338.62122625  .00017826  00000+0  66655-3 0  9994",
        "tle_line2": "2 58663  97.4390  89.7389 0003010 325.5522  34.5522 15.27391449107592"
      },
      "geometry": {
        "type": "Point",
        "coordinates": [
          -22.08700944126342,
          81.97271947430278
        ]
      }
    },
    {
      "type": "Feature",
      "properties": {
        "norad_id": 58700,
        "name": "TIANMU-1 15",
        "group": "weather",
        "lat": -55.21741822697492,
        "lon": 171.2757860978948,
        "alt_km": 495.80271955477747,
        "timestamp": "2025-12-04T21:36:15.517091+00:00",
        "meta_object_name": "TIANMU-1 15",
        "meta_object_id": "2024-004A",
        "meta_epoch": "2025-12-04T15:32:52.368576",
        "meta_mean_motion": 15.24513367,
        "meta_eccentricity": 0.00056851,
        "meta_inclination": 97.4623,
        "meta_ra_of_asc_node": 160.1467,
        "meta_arg_of_pericenter": 331.2787,
        "meta_mean_anomaly": 28.8137,
        "meta_ephemeris_type": 0,
        "meta_classification_type": "U",
        "meta_norad_cat_id": 58700,
        "meta_element_set_no": 999,
        "meta_rev_at_epoch": 10611,
        "meta_bstar": 0.00059091095,
        "meta_mean_motion_dot": 0.00014482,
        "meta_mean_motion_ddot": 0,
        "tle_line1": "1 58700U 24004A   25338.64782834  .00014482  00000+0  59091-3 0  9998",
        "tle_line2": "2 58700  97.4623 160.1467 0005685 331.2787  28.8137 15.24513367106118"
      },
      "geometry": {
        "type": "Point",
        "coordinates": [
          171.2757860978948,
          -55.21741822697492
        ]
      }
    }
  ]
}